STARLINK-1543           
1 46053U 20055AC  26068.66670139  .00014443  00000+0  49937-3 0  9990
2 46053  53.1586 114.0187 0001413  89.7263 198.6794 15.30163255  5745
STARLINK-30494          
1 57970U 23151G   26068.36049035 -.00001272  00000+0 -35691-4 0  9993
2 57970  43.0027 192.4566 0001155 241.5536 118.5200 15.28417441137406
